#dP2023  1 28  0  0  0.00000000      96 __u+U ITR14 FIT  IAC
## 2246 518400.00000000   900.00000000 59972 0.0000000000000
+  129   C01C02C03C04C05C06C07C08C09C10C11C12C13C14C16C19C20
+        C21C22C23C24C25C26C27C28C29C30C32C33C34C35C36C37C38
+        C39C40C41C42C43C44C45C46C59C60E01E02E03E04E05E07E08
+        E09E10E11E12E13E14E15E18E19E21E24E25E27E30E31E33E34
+        E36G01G02G03G04G05G06G07G08G09G10G11G12G13G14G15G16
+        G17G18G19G20G21G22G23G24G25G26G27G29G30G31G32J02J03
+        J04J07R01R02R03R04R05R06R07R08R09R10R11R12R13R14R15
+        R16R17R18R19R20R21R22R23R24R25  0  0  0  0  0  0  0
++        17 17 17 17 16  9  9 10  9  9  9  9  9  9  9  7  6
++         7  7  7  7  7  7  7  7  7  7  7  7  7  7  7  7  8
++         8  8  8  7  7  7  7  7 18 17  4  4  4  4  4  5  4
++         4  4  4  4  4  5  4  4  4  4  4  4  4  4  4  5  4
++         4  4  4  4  4  4  4  4  4  4  4  4  3  4  4  4  4
++         4  4  3  4  4  4  4  3  7  4  4  4  4  3  4  8  8
++         9 17  7  5  5  6  6 15  6  6  6 15  6  6  7  6  6
++         6  6  6  7  7  6  6 15  6  8  0  0  0  0  0  0  0
%c M  cc GPS ccc cccc cccc cccc cccc ccccc ccccc ccccc ccccc
%c cc cc ccc ccc cccc cccc cccc cccc ccccc ccccc ccccc ccccc
%f  0.0000000  0.000000000  0.00000000000  0.000000000000000
%f  0.0000000  0.000000000  0.00000000000  0.000000000000000
%i    0    0    0    0      0      0      0      0         0
%i    0    0    0    0      0      0      0      0         0
/* INFORMATION & ANALYSIS CENTER (IAC)            RAPID DATA
/* S/V CLOCKS ARE ALIGNED TO GNSS TIME                      
/* G:C1WC2W R:C1PC2P E:C1XC5X C:C2IC6I J:C1CC2S             
/* PCV:IGS20_2239 OL/AL:FES2004  NONE     YN ORB:CoN CLK:CoN
*  2023 01 28 15 45  0.00000000
PC01 -34253.561668  24561.138054    970.810854    915.656153
PC02   4302.022026  41932.354613    108.350778   -329.168575
PC03 -14821.442393  39442.851584    969.763605    138.799021
PC04 -39613.897867  14403.836221    670.494888    -49.465067
PC05  21799.998733  36047.204253   -243.406720    256.468317
PC06 -15697.147410  24851.152809 -30315.026351   -188.462665
PC07 -10847.989281  40613.242463  -1576.130710    -49.604194
PC08   2572.276922  28856.655843  30714.019202    527.734239
PC09  -6896.474742  24720.099283 -33152.625928    447.019483
PC10  -5677.030948  41307.376775   4295.053041     23.097228
PC11  26533.181009  -8669.976196   -272.777603   -152.253290
PC12  22603.332271   3624.117074  16004.546474    421.767188
PC13   6713.506369  31648.410883  27349.731458    194.315272
PC14  15840.567781 -11987.842932 -19600.789294    417.222073
PC16 -17132.657999  24211.869093 -29865.612817     72.060593
PC19 -12984.050980  20855.488290  13248.847011   -895.461545
PC20 -16182.383784   3041.803365  22541.130499    748.322107
PC21   9822.305548  17985.883906 -18915.669217   -913.831210
PC22  -2146.943451  27493.115644  -4199.602745   -662.021129
PC23  -4185.484410 -20793.417874  18124.953607   -873.558600
PC24  23467.296878   7788.551503  12946.398504   -482.540142
PC25  12670.800193 -10552.477983  22501.491718     62.813750
PC26  20413.094880  18903.344409  -2438.455149    -70.777478
PC27 -16107.316696  -9653.052494 -20664.373026     88.380410
PC28   2753.224513 -17031.752830 -21927.040368     64.084272
PC29 -21139.308208  15416.721177   9711.633978     73.539196
PC30 -26334.990035   3858.574955  -8433.825360      1.249694
PC32  -9947.053479 -17993.652838  18888.790788   -637.206683
PC33  12890.360683 -20892.151766 -13275.456174   -876.907999
PC34  26508.456331  -4704.678689   7284.605998     93.711101
PC35  -3610.024717  17463.322619  21469.110366    689.997139
PC36 -13449.947970   9720.977203 -22420.101626   -663.313497
PC37 -19171.334813 -19905.756971   3764.069523   -835.135476
PC38  -6269.602816  25107.541714  33355.832445     55.007478
PC39 -23519.503767  24167.987073 -25412.256935     -1.598405
PC40 -17121.818541  38137.735279  -4425.174329    -13.677578
PC41   2393.976069 -27567.191731   3671.320947   -546.127175
PC42  16098.795562  -1640.830589 -22691.647093   -868.997978
PC43  21670.242418 -15092.783987  -8986.502923      4.363306
PC44  16271.965845   9312.275234  20649.585497    191.568480
PC45   4649.928954  20865.463851 -17960.602148    -53.303180
PC46 -23045.696432  -6225.965364 -14427.045693    -29.550941
PC59 -32275.328313  27124.031941      7.787663      0.199622
PC60   7320.170696  41503.254052   1440.958246     -0.527265
PE01 -18158.724125 -13472.145298 -19100.937604   -598.899681
PE02  18198.826943  13106.088420  19322.684790     17.429504
PE03  19776.370480    987.646691 -22007.662075   -644.441700
PE04 -22899.103400  16601.861018   8741.732979    -46.055814
PE05   4927.573154  18427.881557 -22633.588705   -100.788201
PE07  12636.509673 -24845.029684   9970.160752    -18.653603
PE08  22844.642889 -16599.131796  -8885.957393    -26.888489
PE09 -12778.177214  24818.302070  -9832.641619   -816.184603
PE10 -17200.674904  10753.863917  21555.556788   -508.344677
PE11  -5852.236680  15172.313153  24731.342939    653.501638
PE12 -24849.288999   5096.739338  15276.784136   -401.172209
PE13   6807.509781 -14841.721145 -24678.600594    429.641307
PE14   1253.143922 -24560.894435 -21060.870595    126.271091
PE15  25020.996128  -4880.947990 -15024.532051    691.109618
PE18   5154.500047  15079.104042  17733.840020   -456.353269
PE19 -18232.500459  -3584.750388  23047.691480  -3373.912715
PE21 -11897.441552 -26766.575660  -4232.188110   -508.896017
PE24  -2446.898807  25499.881344 -14875.841154  -1083.112001
PE25  11714.165220  26908.246491   3913.126255   -598.174139
PE27   1691.166653 -25901.170573  14209.818870   -498.686998
PE30  14533.470598  -9011.567430  24144.332440  -1197.049305
PE31 -14133.061573   9810.321598 -24087.019268   -514.528342
PE33 -28334.884343  -7875.442199  -3404.533202   -453.258395
PE34  28387.643096   7736.955938   3256.495797    -27.181506
PE36  15152.504703  15993.511196  19771.306846     -4.056442
PG01 -19222.235272 -14060.967646 -12432.215944    219.030834
PG02  21627.952208  11491.027520  10613.065929   -624.513210
PG03 -12577.704451 -21136.877861  10048.181737   -368.876836
PG04 -11214.687754 -10281.400002  21780.410055    -39.413679
PG05   4951.313204  25658.435239   4208.294490   -113.735731
PG06 -17932.159486   7448.233792  18232.888291    565.206857
PG07 -25928.629722  -6842.264520   -392.851033    251.106578
PG08   -852.932605 -18380.217660 -19062.524082   -105.782765
PG09 -18966.104911    815.085144  18518.906571   -228.465029
PG10  12957.105978  -7938.723374 -21576.921180    -22.328470
PG11  -4695.910743  14392.307363  21834.643691    -89.699619
PG12  10362.738479  22858.248392   8568.651905   -333.554601
PG13  -8016.265980  19711.521898 -15947.725711    466.939235
PG14 -14645.727351   5110.224778 -21548.870689    -39.863099
PG15   3754.181193  18439.229150 -19093.212532      8.549022
PG16    191.867536 -25429.964590   6475.768021   -522.342314
PG17 -22120.423728  11934.843566  -8295.796138    696.427622
PG18  25893.688625   4431.899543  -4406.991778   -117.462980
PG19 -19932.583804  17244.579703   1473.634659    270.177741
PG20  -1836.178233  22042.413320  14888.778790    454.215494
PG21 -12988.642225 -14842.897982 -17565.485103    153.711377
PG22  17236.283505 -19446.765794   5453.491169    415.445217
PG23  16078.669853   4783.300628 -20624.455513      3.963836
PG24  16284.851622  14698.121690 -15608.079842    -49.731172
PG25  15391.564307  15275.078851  15213.514694    415.272762
PG26   7400.590032 -18398.977424  17395.159817    240.913759
PG27   9748.607030 -21444.906719 -12075.687785    115.921731
PG29  17111.787661   3142.125764  20045.164570   -583.006553
PG30 -23523.394725   2681.402154 -12200.728797   -532.037908
PG31  16918.373300  -8698.340505  18549.490704   -207.636083
PG32  20910.834337 -14868.635766  -6278.555744   -378.620625
PJ02 -20640.016378  24772.943483 -22572.638836     -0.710141
PJ03 -29663.486148  25862.978724  20119.917322      0.020735
PJ04 -27608.228461  29665.841893  17599.178498    120.848754
PJ07 -25404.093973  33662.716001    -41.113403     -0.015669
PR01   8466.708758   8398.949646 -22545.020479     22.036570
PR02  13618.734448 -10966.902759 -18497.674773    -23.312851
PR03  10553.990015 -22910.107623  -3528.175933     71.535952
PR04   1964.406017 -21810.552601  13096.949225    173.758961
PR05  -7802.252192  -8901.865839  22603.633599    106.861393
PR06 -13401.389598  12473.126987  17765.525406    -92.644837
PR07 -10348.517276  23174.845705   2859.533052     48.837978
PR08  -1770.595025  21811.144591 -13077.601147    -69.232436
PR09 -14802.162381  -1508.098521 -20727.252244    101.042725
PR10  -3818.431836  12032.445707 -22193.031020    -90.010429
PR11  10347.540743  20520.938264 -11050.091551      1.821284
PR12  18144.692623  16163.541542   7810.918557     24.636968
PR13  15381.591705   3312.416926  20057.720030    -31.413613
PR14   2590.879183 -13305.910335  21614.997461     24.299765
PR15 -10815.467470 -20810.451436  10042.187451     91.442068
PR16 -18201.449383 -16260.949913  -7459.829163     10.560247
PR17  14995.448790 -10487.338854 -17774.140521    599.836870
PR18  -2565.805611 -10171.374185 -23232.053530     64.038636
PR19 -17581.474865  -5794.141333 -17544.735843   -219.862334
PR20 -25246.263778   3537.958521   1442.773042    -86.700362
PR21 -13473.921029  10589.629058  18890.334369   -368.970829
PR22   3083.640655  10571.923950  23037.649304     68.604848
PR23  21142.387045   3324.570561  13869.601703    -70.685589
PR24  25007.025277  -4624.146734  -2024.753110    142.788584
PR25 -15700.821443   9936.770819  17476.692356     52.855881
EOF
